TEVEL2-4                
1 63213U 25052D   26068.69417973  .00020990  00000+0  70363-3 0  9998
2 63213  97.4009 325.1237 0004733  95.3468 264.8313 15.30925813 54879
STARLINK-35932          
1 66526U 25265L   26067.63899759  .00041123  00000+0  14946-2 0  9998
2 66526  42.9979 283.7947 0000323 336.7520  23.3317 15.27602763 16950
